CCSDS_OMM_VERS = 2.0
CREATION_DATE  = 
ORIGINATOR     = 

OBJECT_NAME    = ISS (ZARYA)
OBJECT_ID      = 1998-067A
CENTER_NAME    = EARTH
REF_FRAME      = TEME
TIME_SYSTEM    = UTC
MEAN_ELEMENT_THEORY = SGP/SGP4

EPOCH          = 2026-03-12T10:00:54.608544
MEAN_MOTION    = 15.48601092
ECCENTRICITY   = .00079757
INCLINATION    = 51.6324
RA_OF_ASC_NODE = 58.8700
ARG_OF_PERICENTER = 184.3112
MEAN_ANOMALY   = 175.7809

EPHEMERIS_TYPE = 0
CLASSIFICATION_TYPE = U
NORAD_CAT_ID   = 25544
ELEMENT_SET_NO = 999
REV_AT_EPOCH   = 55675
BSTAR          = .18173156E-3
MEAN_MOTION_DOT = .9444E-4
MEAN_MOTION_DDOT = 0

CCSDS_OMM_VERS = 2.0
CREATION_DATE  = 
ORIGINATOR     = 

OBJECT_NAME    = POISK
OBJECT_ID      = 2009-060A
CENTER_NAME    = EARTH
REF_FRAME      = TEME
TIME_SYSTEM    = UTC
MEAN_ELEMENT_THEORY = SGP/SGP4

EPOCH          = 2026-03-12T10:00:54.608544
MEAN_MOTION    = 15.48601092
ECCENTRICITY   = .00079757
INCLINATION    = 51.6324
RA_OF_ASC_NODE = 58.8700
ARG_OF_PERICENTER = 184.3112
MEAN_ANOMALY   = 175.7809

EPHEMERIS_TYPE = 0
CLASSIFICATION_TYPE = U
NORAD_CAT_ID   = 36086
ELEMENT_SET_NO = 999
REV_AT_EPOCH   = 55444
BSTAR          = .18173156E-3
MEAN_MOTION_DOT = .9444E-4
MEAN_MOTION_DDOT = 0

CCSDS_OMM_VERS = 2.0
CREATION_DATE  = 
ORIGINATOR     = 

OBJECT_NAME    = CSS (TIANHE)
OBJECT_ID      = 2021-035A
CENTER_NAME    = EARTH
REF_FRAME      = TEME
TIME_SYSTEM    = UTC
MEAN_ELEMENT_THEORY = SGP/SGP4

EPOCH          = 2026-03-12T14:16:53.188320
MEAN_MOTION    = 15.60823490
ECCENTRICITY   = .00067279
INCLINATION    = 41.4662
RA_OF_ASC_NODE = 190.4821
ARG_OF_PERICENTER = 289.9358
MEAN_ANOMALY   = 70.0756

EPHEMERIS_TYPE = 0
CLASSIFICATION_TYPE = U
NORAD_CAT_ID   = 48274
ELEMENT_SET_NO = 999
REV_AT_EPOCH   = 27806
BSTAR          = .30291496E-3
MEAN_MOTION_DOT = .25773E-3
MEAN_MOTION_DDOT = 0

CCSDS_OMM_VERS = 2.0
CREATION_DATE  = 
ORIGINATOR     = 

OBJECT_NAME    = ISS (NAUKA)
OBJECT_ID      = 2021-066A
CENTER_NAME    = EARTH
REF_FRAME      = TEME
TIME_SYSTEM    = UTC
MEAN_ELEMENT_THEORY = SGP/SGP4

EPOCH          = 2026-03-12T10:00:54.608544
MEAN_MOTION    = 15.48601092
ECCENTRICITY   = .00079757
INCLINATION    = 51.6324
RA_OF_ASC_NODE = 58.8700
ARG_OF_PERICENTER = 184.3112
MEAN_ANOMALY   = 175.7809

EPHEMERIS_TYPE = 0
CLASSIFICATION_TYPE = U
NORAD_CAT_ID   = 49044
ELEMENT_SET_NO = 999
REV_AT_EPOCH   = 55445
BSTAR          = .18173156E-3
MEAN_MOTION_DOT = .9444E-4
MEAN_MOTION_DDOT = 0

CCSDS_OMM_VERS = 2.0
CREATION_DATE  = 
ORIGINATOR     = 

OBJECT_NAME    = FREGAT DEB
OBJECT_ID      = 2011-037PF
CENTER_NAME    = EARTH
REF_FRAME      = TEME
TIME_SYSTEM    = UTC
MEAN_ELEMENT_THEORY = SGP/SGP4

EPOCH          = 2026-03-11T18:41:49.081920
MEAN_MOTION    = 12.40266234
ECCENTRICITY   = .09612509
INCLINATION    = 51.6527
RA_OF_ASC_NODE = 294.4862
ARG_OF_PERICENTER = 64.2314
MEAN_ANOMALY   = 305.4537

EPHEMERIS_TYPE = 0
CLASSIFICATION_TYPE = U
NORAD_CAT_ID   = 49271
ELEMENT_SET_NO = 999
REV_AT_EPOCH   = 21295
BSTAR          = .28816226E-1
MEAN_MOTION_DOT = .20146E-3
MEAN_MOTION_DDOT = 0

CCSDS_OMM_VERS = 2.0
CREATION_DATE  = 
ORIGINATOR     = 

OBJECT_NAME    = CSS (WENTIAN)
OBJECT_ID      = 2022-085A
CENTER_NAME    = EARTH
REF_FRAME      = TEME
TIME_SYSTEM    = UTC
MEAN_ELEMENT_THEORY = SGP/SGP4

EPOCH          = 2026-03-12T14:16:53.188320
MEAN_MOTION    = 15.60823490
ECCENTRICITY   = .00067279
INCLINATION    = 41.4662
RA_OF_ASC_NODE = 190.4821
ARG_OF_PERICENTER = 289.9358
MEAN_ANOMALY   = 70.0756

EPHEMERIS_TYPE = 0
CLASSIFICATION_TYPE = U
NORAD_CAT_ID   = 53239
ELEMENT_SET_NO = 999
REV_AT_EPOCH   = 27561
BSTAR          = .30291496E-3
MEAN_MOTION_DOT = .25773E-3
MEAN_MOTION_DDOT = 0

CCSDS_OMM_VERS = 2.0
CREATION_DATE  = 
ORIGINATOR     = 

OBJECT_NAME    = CSS (MENGTIAN)
OBJECT_ID      = 2022-143A
CENTER_NAME    = EARTH
REF_FRAME      = TEME
TIME_SYSTEM    = UTC
MEAN_ELEMENT_THEORY = SGP/SGP4

EPOCH          = 2026-03-12T14:16:53.188320
MEAN_MOTION    = 15.60823490
ECCENTRICITY   = .00067279
INCLINATION    = 41.4662
RA_OF_ASC_NODE = 190.4821
ARG_OF_PERICENTER = 289.9358
MEAN_ANOMALY   = 70.0756

EPHEMERIS_TYPE = 0
CLASSIFICATION_TYPE = U
NORAD_CAT_ID   = 54216
ELEMENT_SET_NO = 999
REV_AT_EPOCH   = 27558
BSTAR          = .30291496E-3
MEAN_MOTION_DOT = .25773E-3
MEAN_MOTION_DDOT = 0

CCSDS_OMM_VERS = 2.0
CREATION_DATE  = 
ORIGINATOR     = 

OBJECT_NAME    = PROGRESS-MS 31
OBJECT_ID      = 2025-146A
CENTER_NAME    = EARTH
REF_FRAME      = TEME
TIME_SYSTEM    = UTC
MEAN_ELEMENT_THEORY = SGP/SGP4

EPOCH          = 2026-03-12T10:00:54.608544
MEAN_MOTION    = 15.48601092
ECCENTRICITY   = .00079757
INCLINATION    = 51.6324
RA_OF_ASC_NODE = 58.8700
ARG_OF_PERICENTER = 184.3112
MEAN_ANOMALY   = 175.7809

EPHEMERIS_TYPE = 0
CLASSIFICATION_TYPE = U
NORAD_CAT_ID   = 64751
ELEMENT_SET_NO = 999
REV_AT_EPOCH   = 55446
BSTAR          = .18173156E-3
MEAN_MOTION_DOT = .9444E-4
MEAN_MOTION_DDOT = 0

CCSDS_OMM_VERS = 2.0
CREATION_DATE  = 
ORIGINATOR     = 

OBJECT_NAME    = TIANZHOU-9
OBJECT_ID      = 2025-149A
CENTER_NAME    = EARTH
REF_FRAME      = TEME
TIME_SYSTEM    = UTC
MEAN_ELEMENT_THEORY = SGP/SGP4

EPOCH          = 2026-03-12T14:16:53.188320
MEAN_MOTION    = 15.60823490
ECCENTRICITY   = .00067279
INCLINATION    = 41.4662
RA_OF_ASC_NODE = 190.4821
ARG_OF_PERICENTER = 289.9358
MEAN_ANOMALY   = 70.0756

EPHEMERIS_TYPE = 0
CLASSIFICATION_TYPE = U
NORAD_CAT_ID   = 64786
ELEMENT_SET_NO = 999
REV_AT_EPOCH   = 27559
BSTAR          = .30291496E-3
MEAN_MOTION_DOT = .25773E-3
MEAN_MOTION_DDOT = 0

CCSDS_OMM_VERS = 2.0
CREATION_DATE  = 
ORIGINATOR     = 

OBJECT_NAME    = PROGRESS-MS 32
OBJECT_ID      = 2025-204A
CENTER_NAME    = EARTH
REF_FRAME      = TEME
TIME_SYSTEM    = UTC
MEAN_ELEMENT_THEORY = SGP/SGP4

EPOCH          = 2026-03-12T10:00:54.608544
MEAN_MOTION    = 15.48601092
ECCENTRICITY   = .00079757
INCLINATION    = 51.6324
RA_OF_ASC_NODE = 58.8700
ARG_OF_PERICENTER = 184.3112
MEAN_ANOMALY   = 175.7809

EPHEMERIS_TYPE = 0
CLASSIFICATION_TYPE = U
NORAD_CAT_ID   = 65586
ELEMENT_SET_NO = 999
REV_AT_EPOCH   = 55450
BSTAR          = .18173156E-3
MEAN_MOTION_DOT = .9444E-4
MEAN_MOTION_DDOT = 0

CCSDS_OMM_VERS = 2.0
CREATION_DATE  = 
ORIGINATOR     = 

OBJECT_NAME    = CYGNUS NG-23
OBJECT_ID      = 2025-208A
CENTER_NAME    = EARTH
REF_FRAME      = TEME
TIME_SYSTEM    = UTC
MEAN_ELEMENT_THEORY = SGP/SGP4

EPOCH          = 2026-03-12T03:49:12.417600
MEAN_MOTION    = 15.48595269
ECCENTRICITY   = .00079841
INCLINATION    = 51.6325
RA_OF_ASC_NODE = 60.1463
ARG_OF_PERICENTER = 183.4136
MEAN_ANOMALY   = 176.6799

EPHEMERIS_TYPE = 0
CLASSIFICATION_TYPE = U
NORAD_CAT_ID   = 65616
ELEMENT_SET_NO = 999
REV_AT_EPOCH   = 55674
BSTAR          = .17667487E-3
MEAN_MOTION_DOT = .9166E-4
MEAN_MOTION_DDOT = 0

CCSDS_OMM_VERS = 2.0
CREATION_DATE  = 
ORIGINATOR     = 

OBJECT_NAME    = YOTSUBA-KULOVER
OBJECT_ID      = 1998-067XN
CENTER_NAME    = EARTH
REF_FRAME      = TEME
TIME_SYSTEM    = UTC
MEAN_ELEMENT_THEORY = SGP/SGP4

EPOCH          = 2026-03-12T07:07:37.602336
MEAN_MOTION    = 15.81783905
ECCENTRICITY   = .00052479
INCLINATION    = 51.6212
RA_OF_ASC_NODE = 43.7570
ARG_OF_PERICENTER = 86.7909
MEAN_ANOMALY   = 273.3694

EPHEMERIS_TYPE = 0
CLASSIFICATION_TYPE = U
NORAD_CAT_ID   = 65941
ELEMENT_SET_NO = 999
REV_AT_EPOCH   = 2391
BSTAR          = .11908382E-2
MEAN_MOTION_DOT = .252337E-2
MEAN_MOTION_DDOT = 0

