ISS (ZARYA)             
1 25544U 98067A   26071.41729871  .00009444  00000+0  18173-3 0  9998
2 25544  51.6324  58.8700 0007975 184.3112 175.7809 15.48601092556750
POISK                   
1 36086U 09060A   26071.41729871  .00009444  00000+0  18173-3 0  9996
2 36086  51.6324  58.8700 0007975 184.3112 175.7809 15.48601092554447
CSS (TIANHE)            
1 48274U 21035A   26071.59506005  .00025773  00000+0  30291-3 0  9993
2 48274  41.4662 190.4821 0006727 289.9358  70.0756 15.60823490278067
ISS (NAUKA)             
1 49044U 21066A   26071.41729871  .00009444  00000+0  18173-3 0  9994
2 49044  51.6324  58.8700 0007975 184.3112 175.7809 15.48601092554456
FREGAT DEB              
1 49271U 11037PF  26070.77904030  .00020146  00000+0  28816-1 0  9998
2 49271  51.6527 294.4862 0961250  64.2314 305.4537 12.40266234212955
CSS (WENTIAN)           
1 53239U 22085A   26071.59506005  .00025773  00000+0  30291-3 0  9996
2 53239  41.4662 190.4821 0006727 289.9358  70.0756 15.60823490275612
CSS (MENGTIAN)          
1 54216U 22143A   26071.59506005  .00025773  00000+0  30291-3 0  9997
2 54216  41.4662 190.4821 0006727 289.9358  70.0756 15.60823490275584
PROGRESS-MS 31          
1 64751U 25146A   26071.41729871  .00009444  00000+0  18173-3 0  9999
2 64751  51.6324  58.8700 0007975 184.3112 175.7809 15.48601092554469
TIANZHOU-9              
1 64786U 25149A   26071.59506005  .00025773  00000+0  30291-3 0  9999
2 64786  41.4662 190.4821 0006727 289.9358  70.0756 15.60823490275598
PROGRESS-MS 32          
1 65586U 25204A   26071.41729871  .00009444  00000+0  18173-3 0  9991
2 65586  51.6324  58.8700 0007975 184.3112 175.7809 15.48601092554501
CYGNUS NG-23            
1 65616U 25208A   26071.15917150  .00009166  00000+0  17667-3 0  9997
2 65616  51.6325  60.1463 0007984 183.4136 176.6799 15.48595269556748
YOTSUBA-KULOVER         
1 65941U 98067XN  26071.29696299  .00252337  00000+0  11908-2 0  9995
2 65941  51.6212  43.7570 0005247  86.7909 273.3694 15.81783905 23913
